{"type": "FeatureCollection", "features": [ {"type": "Feature", "properties": {"norad_id": 36994, "name": "FENGYUN 1C DEB", "group": "fengyun-1c-debris", "lat": -74.94341318155354, "lon": -9.089518842802986, "alt_km": 851.0994756816417, "timestamp": "2025-12-20T18:51:32.002896+00:00", "meta": {"OBJECT_NAME": "FENGYUN 1C DEB", "OBJECT_ID": "1999-025ECA", "EPOCH": "2025-12-16T08:10:41.996640", "MEAN_MOTION": 13.90788308, "ECCENTRICITY": 0.0114556, "INCLINATION": 98.643, "RA_OF_ASC_NODE": 312.3437, "ARG_OF_PERICENTER": 283.1778, "MEAN_ANOMALY": 75.6623, "EPHEMERIS_TYPE": 0, "CLASSIFICATION_TYPE": "U", "NORAD_CAT_ID": 36994, "ELEMENT_SET_NO": 999, "REV_AT_EPOCH": 80957, "BSTAR": 0.00016418343, "MEAN_MOTION_DOT": 1.75e-06, "MEAN_MOTION_DDOT": 0}, "tle": {"line1": "1 36994U 99025ECA 25350.34076385  .00000175  00000+0  16418-3 0  9992", "line2": "2 36994  98.6430 312.3437 0114556 283.1778  75.6623 13.90788308809579"}}, "geometry": {"type": "Point", "coordinates": [-9.089518842802986, -74.94341318155354]}}, {"type": "Feature", "properties": {"norad_id": 36995, "name": "FENGYUN 1C DEB", "group": "fengyun-1c-debris", "lat": -52.563476776207004, "lon": 41.79754854517291, "alt_km": 867.6472086421636, "timestamp": "2025-12-20T18:51:32.002906+00:00", "meta": {"OBJECT_NAME": "FENGYUN 1C DEB", "OBJECT_ID": "1999-025ECB", "EPOCH": "2025-12-19T09:16:16.802976", "MEAN_MOTION": 14.04869062, "ECCENTRICITY": 0.003843, "INCLINATION": 98.3428, "RA_OF_ASC_NODE": 231.561, "ARG_OF_PERICENTER": 291.755, "MEAN_ANOMALY": 67.9531, "EPHEMERIS_TYPE": 0, "CLASSIFICATION_TYPE": "U", "NORAD_CAT_ID": 36995, "ELEMENT_SET_NO": 999, "REV_AT_EPOCH": 63650, "BSTAR": 0.0002061, "MEAN_MOTION_DOT": 2.94e-06, "MEAN_MOTION_DDOT": 0}, "tle": {"line1": "1 36995U 99025ECB 25353.38630559  .00000294  00000+0  20610-3 0  9990", "line2": "2 36995  98.3428 231.5610 0038430 291.7550  67.9531 14.04869062636504"}}, "geometry": {"type": "Point", "coordinates": [41.79754854517291, -52.563476776207004]}}, {"type": "Feature", "properties": {"norad_id": 36996, "name": "FENGYUN 1C DEB", "group": "fengyun-1c-debris", "lat": 5.613091530666649, "lon": -32.81955181235861, "alt_km": 1017.0955323796625, "timestamp": "2025-12-20T18:51:32.002916+00:00", "meta": {"OBJECT_NAME": "FENGYUN 1C DEB", "OBJECT_ID": "1999-025ECC", "EPOCH": "2025-12-19T06:51:36.156096", "MEAN_MOTION": 14.11557729, "ECCENTRICITY": 0.0254059, "INCLINATION": 98.2257, "RA_OF_ASC_NODE": 144.9888, "ARG_OF_PERICENTER": 330.3469, "MEAN_ANOMALY": 147.4127, "EPHEMERIS_TYPE": 0, "CLASSIFICATION_TYPE": "U", "NORAD_CAT_ID": 36996, "ELEMENT_SET_NO": 999, "REV_AT_EPOCH": 59784, "BSTAR": 0.00056112, "MEAN_MOTION_DOT": 1.337e-05, "MEAN_MOTION_DDOT": 0}, "tle": {"line1": "1 36996U 99025ECC 25353.28583514  .00001337  00000+0  56112-3 0  9993", "line2": "2 36996  98.2257 144.9888 0254059 330.3469 147.4127 14.11557729597844"}}, "geometry": {"type": "Point", "coordinates": [-32.81955181235861, 5.613091530666649]}}, {"type": "Feature", "properties": {"norad_id": 37003, "name": "FENGYUN 1C DEB", "group": "fengyun-1c-debris", "lat": 34.94861124724011, "lon": -155.65709988751925, "alt_km": 834.0750194037264, "timestamp": "2025-12-20T18:51:32.002926+00:00", "meta": {"OBJECT_NAME": "FENGYUN 1C DEB", "OBJECT_ID": "1999-025ECK", "EPOCH": "2025-12-18T07:48:02.434752", "MEAN_MOTION": 13.96231437, "ECCENTRICITY": 0.00968579, "INCLINATION": 98.8458, "RA_OF_ASC_NODE": 15.7304, "ARG_OF_PERICENTER": 147.1253, "MEAN_ANOMALY": 235.2095, "EPHEMERIS_TYPE": 0, "CLASSIFICATION_TYPE": "U", "NORAD_CAT_ID": 37003, "ELEMENT_SET_NO": 999, "REV_AT_EPOCH": 60735, "BSTAR": 0.00036300048, "MEAN_MOTION_DOT": 4.78e-06, "MEAN_MOTION_DDOT": 0}, "tle": {"line1": "1 37003U 99025ECK 25352.32502818  .00000478  00000+0  36300-3 0  9997", "line2": "2 37003  98.8458  15.7304 0096857 147.1253 235.2095 13.96231437607351"}}, "geometry": {"type": "Point", "coordinates": [-155.65709988751925, 34.94861124724011]}}, {"type": "Feature", "properties": {"norad_id": 37006, "name": "FENGYUN 1C DEB", "group": "fengyun-1c-debris", "lat": -9.007257957290427, "lon": 62.685178451916464, "alt_km": 583.2586174426933, "timestamp": "2025-12-20T18:51:32.002936+00:00", "meta": {"OBJECT_NAME": "FENGYUN 1C DEB", "OBJECT_ID": "1999-025ECN", "EPOCH": "2025-12-19T10:28:57.061920", "MEAN_MOTION": 14.48944917, "ECCENTRICITY": 0.0255191, "INCLINATION": 99.2983, "RA_OF_ASC_NODE": 242.6867, "ARG_OF_PERICENTER": 228.1435, "MEAN_ANOMALY": 129.7724, "EPHEMERIS_TYPE": 0, "CLASSIFICATION_TYPE": "U", "NORAD_CAT_ID": 37006, "ELEMENT_SET_NO": 999, "REV_AT_EPOCH": 65211, "BSTAR": 0.00044029, "MEAN_MOTION_DOT": 2.456e-05, "MEAN_MOTION_DDOT": 0}, "tle": {"line1": "1 37006U 99025ECN 25353.43677155  .00002456  00000+0  44029-3 0  9995", "line2": "2 37006  99.2983 242.6867 0255191 228.1435 129.7724 14.48944917652119"}}, "geometry": {"type": "Point", "coordinates": [62.685178451916464, -9.007257957290427]}}, {"type": "Feature", "properties": {"norad_id": 37008, "name": "FENGYUN 1C DEB", "group": "fengyun-1c-debris", "lat": 52.69085782520477, "lon": -54.077013663170874, "alt_km": 872.9258031734416, "timestamp": "2025-12-20T18:51:32.002947+00:00", "meta": {"OBJECT_NAME": "FENGYUN 1C DEB", "OBJECT_ID": "1999-025ECQ", "EPOCH": "2025-12-20T14:50:39.175008", "MEAN_MOTION": 14.07959093, "ECCENTRICITY": 0.00625708, "INCLINATION": 99.1352, "RA_OF_ASC_NODE": 113.5641, "ARG_OF_PERICENTER": 231.8385, "MEAN_ANOMALY": 127.7136, "EPHEMERIS_TYPE": 0, "CLASSIFICATION_TYPE": "U", "NORAD_CAT_ID": 37008, "ELEMENT_SET_NO": 999, "REV_AT_EPOCH": 60425, "BSTAR": 0.00098435999, "MEAN_MOTION_DOT": 1.657e-05, "MEAN_MOTION_DDOT": 0}, "tle": {"line1": "1 37008U 99025ECQ 25354.61850897  .00001657  00000+0  98436-3 0  9997", "line2": "2 37008  99.1352 113.5641 0062570 231.8385 127.7136 14.07959093604251"}}, "geometry": {"type": "Point", "coordinates": [-54.077013663170874, 52.69085782520477]}}, {"type": "Feature", "properties": {"norad_id": 37017, "name": "FENGYUN 1C DEB", "group": "fengyun-1c-debris", "lat": -40.58042798313868, "lon": -52.84657056950453, "alt_km": 576.0812480571267, "timestamp": "2025-12-20T18:51:32.002956+00:00", "meta": {"OBJECT_NAME": "FENGYUN 1C DEB", "OBJECT_ID": "1999-025ECZ", "EPOCH": "2025-12-20T02:22:22.724832", "MEAN_MOTION": 14.40809486, "ECCENTRICITY": 0.02814738, "INCLINATION": 98.7945, "RA_OF_ASC_NODE": 298.8266, "ARG_OF_PERICENTER": 343.5705, "MEAN_ANOMALY": 15.6497, "EPHEMERIS_TYPE": 0, "CLASSIFICATION_TYPE": "U", "NORAD_CAT_ID": 37017, "ELEMENT_SET_NO": 999, "REV_AT_EPOCH": 61267, "BSTAR": 0.00129315, "MEAN_MOTION_DOT": 6.585e-05, "MEAN_MOTION_DDOT": 0}, "tle": {"line1": "1 37017U 99025ECZ 25354.09887413  .00006585  00000+0  12932-2 0  9994", "line2": "2 37017  98.7945 298.8266 0281473 343.5705  15.6497 14.40809486612673"}}, "geometry": {"type": "Point", "coordinates": [-52.84657056950453, -40.58042798313868]}}, {"type": "Feature", "properties": {"norad_id": 37021, "name": "FENGYUN 1C DEB", "group": "fengyun-1c-debris", "lat": 3.262002713098063, "lon": -168.3200221017268, "alt_km": 706.3419237660282, "timestamp": "2025-12-20T18:51:32.002966+00:00", "meta": {"OBJECT_NAME": "FENGYUN 1C DEB", "OBJECT_ID": "1999-025EDD", "EPOCH": "2025-12-18T21:19:54.256224", "MEAN_MOTION": 14.32297815, "ECCENTRICITY": 0.01759429, "INCLINATION": 98.385, "RA_OF_ASC_NODE": 9.3631, "ARG_OF_PERICENTER": 233.4704, "MEAN_ANOMALY": 249.0172, "EPHEMERIS_TYPE": 0, "CLASSIFICATION_TYPE": "U", "NORAD_CAT_ID": 37021, "ELEMENT_SET_NO": 999, "REV_AT_EPOCH": 70142, "BSTAR": 0.0005092002, "MEAN_MOTION_DOT": 1.583e-05, "MEAN_MOTION_DDOT": 0}, "tle": {"line1": "1 37021U 99025EDD 25352.88882241  .00001583  00000+0  50920-3 0  9991", "line2": "2 37021  98.3850   9.3631 0175942 233.4704 249.0172 14.32297815701422"}}, "geometry": {"type": "Point", "coordinates": [-168.3200221017268, 3.262002713098063]}}, {"type": "Feature", "properties": {"norad_id": 37028, "name": "FENGYUN 1C DEB", "group": "fengyun-1c-debris", "lat": -80.63188058947766, "lon": -16.1923346793252, "alt_km": 846.6033829196704, "timestamp": "2025-12-20T18:51:32.002976+00:00", "meta": {"OBJECT_NAME": "FENGYUN 1C DEB", "OBJECT_ID": "1999-025EDL", "EPOCH": "2025-12-18T11:34:45.442560", "MEAN_MOTION": 14.22776654, "ECCENTRICITY": 0.00337702, "INCLINATION": 99.2466, "RA_OF_ASC_NODE": 260.4859, "ARG_OF_PERICENTER": 82.1635, "MEAN_ANOMALY": 278.3373, "EPHEMERIS_TYPE": 0, "CLASSIFICATION_TYPE": "U", "NORAD_CAT_ID": 37028, "ELEMENT_SET_NO": 999, "REV_AT_EPOCH": 60557, "BSTAR": 0.0014134336, "MEAN_MOTION_DOT": 3.141e-05, "MEAN_MOTION_DDOT": 0}, "tle": {"line1": "1 37028U 99025EDL 25352.48247040  .00003141  00000+0  14134-2 0  9994", "line2": "2 37028  99.2466 260.4859 0033770  82.1635 278.3373 14.22776654605577"}}, "geometry": {"type": "Point", "coordinates": [-16.1923346793252, -80.63188058947766]}}, {"type": "Feature", "properties": {"norad_id": 37036, "name": "FENGYUN 1C DEB", "group": "fengyun-1c-debris", "lat": -16.910941556911617, "lon": 164.50963748482533, "alt_km": 972.9093815077131, "timestamp": "2025-12-20T18:51:32.002986+00:00", "meta": {"OBJECT_NAME": "FENGYUN 1C DEB", "OBJECT_ID": "1999-025EDU", "EPOCH": "2025-12-16T06:08:42.790848", "MEAN_MOTION": 14.03573579, "ECCENTRICITY": 0.01241319, "INCLINATION": 98.7147, "RA_OF_ASC_NODE": 342.8405, "ARG_OF_PERICENTER": 45.4254, "MEAN_ANOMALY": 315.6966, "EPHEMERIS_TYPE": 0, "CLASSIFICATION_TYPE": "U", "NORAD_CAT_ID": 37036, "ELEMENT_SET_NO": 999, "REV_AT_EPOCH": 63797, "BSTAR": 0.00035913952, "MEAN_MOTION_DOT": 5.62e-06, "MEAN_MOTION_DDOT": 0}, "tle": {"line1": "1 37036U 99025EDU 25350.25605082  .00000562  00000+0  35914-3 0  9994", "line2": "2 37036  98.7147 342.8405 0124131  45.4254 315.6966 14.03573579637971"}}, "geometry": {"type": "Point", "coordinates": [164.50963748482533, -16.910941556911617]}}]}